COMS 1                  
1 36744U 10032A   19185.99211340 -.00000350  00000-0  00000+0 0  9991
2 36744   0.0190  86.5925 0000656 356.6429 324.7654  1.00272947 33192
ARABSAT-5A              
1 36745U 10032B   19185.82898220  .00000148  00000-0  00000-0 0  9997
2 36745   0.0826  60.3779 0005046  54.3045 136.6950  1.00272885 33189
ECHOSTAR 15             
1 36792U 10034A   19186.45174081 -.00000289  00000-0  00000+0 0  9999
2 36792   0.0159 341.0487 0001635 104.2759 298.8049  1.00272940 32947
NILESAT 201             
1 36830U 10037A   19186.18048233 -.00000064  00000-0  00000+0 0  9995
2 36830   0.0618 180.6987 0005942 278.1890 241.9604  1.00271091 32834
RASCOM-QAF 1R           
1 36831U 10037B   19185.89528152  .00000013  00000-0  00000-0 0  9990
2 36831   0.0193  63.1002 0004736  40.9376 143.7398  1.00272201 32833
AEHF-1 (USA 214)        
1 36868U 10039A   19185.82374804  .00000020  00000-0  00000-0 0  9996
2 36868   1.9303 105.1016 0003981 343.3515 134.5888  1.00270631 28195
CHINASAT 6A (ZX 6A)     
1 37150U 10042A   19185.91970758 -.00000359  00000-0  00000+0 0  9990
2 37150   0.0056 268.7430 0001806 274.5170 195.5136  1.00269052 32448
QZS-1 (MICHIBIKI-1)     
1 37158U 10045A   19185.77698958 -.00000124  00000-0  00000+0 0  9994
2 37158  41.3426 148.5529 0759240 270.7192 281.7063  1.00269493 32258
XM-5                    
1 37185U 10053A   19186.09312519 -.00000211  00000-0  00000+0 0  9992
2 37185   0.0179  25.6233 0000811 266.4683 299.0068  1.00271134 31983
BSAT-3B                 
1 37207U 10056B   19185.94988432 -.00000356  00000-0  00000-0 0  9997
2 37207   0.0914 299.3376 0001310  60.9997  14.1318  1.00269578 26766
BEIDOU 6                
1 37210U 10057A   19185.85489128 -.00000117  00000-0  00000-0 0  9995
2 37210   0.8330  47.8498 0002517 125.3133 217.1822  1.00271853 31826
SKYTERRA 1              
1 37218U 10061A   19186.46924834 -.00000123  00000-0  00000+0 0  9990
2 37218   2.3807 346.5106 0001624 199.4028 164.8623  1.00270730 31772
ZHONGXING-20A           
1 37234U 10064A   19186.49420146 -.00000357  00000-0  00000+0 0  9990
2 37234   0.0617 125.6837 0000437  63.2958  38.5564  1.00266217 31576
HYLAS 1                 
1 37237U 10065A   19186.39356476 -.00000150  00000-0  00000+0 0  9998
2 37237   0.0290 317.9910 0001894 133.0095 315.4962  1.00270752 31556
INTELSAT 17 (IS-17)     
1 37238U 10065B   19186.12322160 -.00000008  00000-0  00000+0 0  9995
2 37238   0.0035 102.3801 0002803  14.4651 276.3373  1.00272306 31468
EUTELSAT KA-SAT 9A      
1 37258U 10069A   19185.82470764  .00000057  00000-0  00000-0 0  9995
2 37258   0.0163   9.3046 0005950  52.2749 166.8151  1.00273359 18565
HISPASAT 30W-5          
1 37264U 10070A   19185.81694365 -.00000221  00000-0  00000-0 0  9992
2 37264   0.0216 107.5736 0005564  13.5925  65.4377  1.00269031 27729
KOREASAT 6              
1 37265U 10070B   19185.84608045 -.00000367  00000-0  00000-0 0  9997
2 37265   0.0164  36.6079 0001683  40.9907 265.5634  1.00271200 31305
BEIDOU 8                
1 37384U 11013A   19185.56715729 -.00000198  00000-0  10000-3 0  9990
2 37384  58.7942  65.1722 0039216 206.6735 330.7286  1.00250983 30218
INTELSAT NEW DAWN       
1 37392U 11016A   19185.82950562  .00000150  00000-0  00000-0 0  9990
2 37392   0.0288 245.4161 0000851 147.1686 221.3670  1.00269820 27844
YAHSAT 1A               
1 37393U 11016B   19186.12051729  .00000095  00000-0  00000+0 0  9999
2 37393   0.0160  45.8411 0002674  68.0282 264.8378  1.00271040 30109
SBIRS GEO-1 (USA 230)   
1 37481U 11019A   19185.83613556 -.00000011  00000-0  00000-0 0  9999
2 37481   2.4893 332.1439 0002740 124.5413 193.0644  1.00272002 29966
TELSTAR 14R             
1 37602U 11021A   19186.19888870 -.00000286  00000-0  00000+0 0  9993
2 37602   0.0155   2.3350 0002785  42.9948 246.1729  1.00270986 30324
GSAT-8                  
1 37605U 11022A   19185.83395464  .00000080  00000-0  00000-0 0  9991
2 37605   0.0340 274.6887 0002479  15.6477 347.4331  1.00271040 27755
ST-2                    
1 37606U 11022B   19186.05587545 -.00000218  00000-0  00000+0 0  9993
2 37606   0.0174  30.0817 0001245  96.1674 264.6282  1.00275929 29781
CHINASAT 10 (ZX 10)     
1 37677U 11026A   19185.94988722 -.00000358  00000-0  00000-0 0  9990
2 37677   0.0476 260.2719 0003711 252.2409 222.5989  1.00267620 29509
TIANLIAN 1-02           
1 37737U 11032A   19185.85707218 -.00000023  00000-0  00000-0 0  9992
2 37737   2.7472  74.0453 0012070  99.1954 228.8862  1.00269875 29253
GSAT-12                 
1 37746U 11034A   19186.05491586 -.00000171  00000-0  00000+0 0  9998
2 37746   0.0160  39.7259 0006810  47.1644 298.6380  1.00271464 29497
SES-3                   
1 37748U 11035A   19186.14093017 -.00000108  00000-0  00000+0 0  9998
2 37748   0.0139 358.9686 0002555 102.6938 128.9163  1.00270754 29237
KAZSAT-2                
1 37749U 11035B   19186.12732168 -.00000203  00000-0  00000+0 0  9990
2 37749   0.0492 180.6282 0001159 326.5259 268.0082  1.00270770 29115
BEIDOU 9                
1 37763U 11038A   19185.98504729 -.00000030  00000-0  10000-3 0  9995
2 37763  54.4324 188.6768 0065755 225.9996 317.0312  1.00283214 29182
ASTRA 1N                
1 37775U 11041A   19186.18571647  .00000113  00000-0  00000+0 0  9994
2 37775   0.0351   6.6816 0004971  60.5947 301.6787  1.00268929 28941
BSAT-3C (JCSAT-110R)    
1 37776U 11041B   19186.41921212 -.00000358  00000-0  00000+0 0  9990
2 37776   0.0208 305.5142 0000276 282.6605 315.8262  1.00272367 29068
PAKSAT-1R               
1 37779U 11042A   19186.11763848  .00000148  00000-0  00000+0 0  9996
2 37779   0.0099 230.8060 0004316 217.3139 274.9829  1.00270231 28829
CHINASAT 1A (ZX 1A)     
1 37804U 11047A   19186.42313772 -.00000345  00000-0  00000+0 0  9991
2 37804   0.0125 256.7531 0000856 185.6192 122.9966  1.00267983 28610
COSMOS 2473             
1 37806U 11048A   19185.89205378 -.00000113  00000-0  00000-0 0  9990
2 37806   0.0792 103.4826 0003496   7.4445 119.3106  1.00271768 28603
SES-2                   
1 37809U 11049A   19186.49285399 -.00000203  00000-0  00000+0 0  9991
2 37809   0.0327 299.5412 0002443 154.0920 279.9812  1.00270586 28554
ARABSAT-5C              
1 37810U 11049B   19186.18589095  .00000117  00000-0  00000+0 0  9992
2 37810   0.0584   7.8220 0003816 109.8545 252.0831  1.00270422 28455
EUTELSAT 7 WEST A       
1 37816U 11051A   19186.39574565 -.00000067  00000-0  00000+0 0  9995
2 37816   0.0578  23.0534 0005081 111.5395 283.6557  1.00270943 28511
QUETZSAT 1              
1 37826U 11054A   19185.52047703 -.00000246  00000-0  00000+0 0  9991
2 37826   0.0229 331.4249 0002415 126.8620 294.3158  1.00271856 28635
INTELSAT 18 (IS-18)     
1 37834U 11056A   19186.14599017  .00000046  00000-0  00000+0 0  9998
2 37834   0.0121  72.6355 0002233  35.3561  47.4147  1.00270826 28397
EUTELSAT 16A            
1 37836U 11057A   19186.18510582  .00000098  00000-0  00000+0 0  9992
2 37836   0.0630   7.6229 0004829  95.8587 262.0633  1.00274575 28338
VIASAT-1                
1 37843U 11059A   19186.08719315 -.00000030  00000-0  00000+0 0  9993
2 37843   0.0182  38.9877 0002241  58.3478 101.7385  1.00271253 28819
ASIASAT 7               
1 37933U 11069A   19186.57541532 -.00000341  00000-0  00000+0 0  9997
2 37933   0.0357 276.3900 0001342 155.6418 163.8626  1.00273337 28007
BEIDOU 10               
1 37948U 11073A   19184.23832823 -.00000160  00000-0  10000-3 0  9999
2 37948  52.1360 302.0382 0062633 208.8915 309.3002  1.00291771 27926
LUCH 5A                 
1 37951U 11074B   19186.59203494 -.00000054  00000-0  00000+0 0  9998
2 37951   2.5191 127.6338 0003441 330.9879 204.7037  1.00273535 27734
NIGCOMSAT 1R            
1 38014U 11077A   19186.11859809  .00000139  00000-0  00000+0 0  9990
2 38014   0.0372 144.8368 0003408 277.9887 305.1890  1.00268882 27579
FENGYUN 2F              
1 38049U 12002A   19186.34757418 -.00000364  00000-0  00000+0 0  9996
2 38049   1.2820  82.1744 0001647 121.1489 316.8191  1.00264521 27435
WGS F4 (USA 233)        
1 38070U 12003A   19186.12775786 -.00000221  00000-0  00000+0 0  9997
2 38070   0.0177  17.8386 0000079 239.3199 160.0748  1.00271872 27261
SES-4                   
1 38087U 12007A   19186.17751630 -.00000174  00000-0  00000+0 0  9993
2 38087   0.0109  19.7411 0002434  88.3588 216.6792  1.00271719 27026
BEIDOU 11               
1 38091U 12008A   19185.90644771  .00000051  00000-0  00000-0 0  9990
2 38091   1.4484  64.3277 0007908 293.4119 309.9082  1.00267492 27018
MUOS-1                  
1 38093U 12009A   19186.48174306  .00000060  00000-0  00000+0 0  9998
2 38093   2.6352 355.9743 0056570 176.5014 107.1253  1.00270507 26993
INTELSAT 22 (IS-22)     
1 38098U 12011A   19186.12444289 -.00000064  00000-0  00000+0 0  9992
2 38098   0.0349  70.0632 0003071  43.4129 286.2430  1.00270246 26597
APSTAR 7                
1 38107U 12013A   19185.96905968 -.00000107  00000-0  00000-0 0  9991
2 38107   0.0156  56.4628 0002310  49.9542 241.6265  1.00271811 26705
YAHSAT 1B               
1 38245U 12016A   19186.40673737  .00000120  00000-0  00000+0 0  9996
2 38245   0.0206  53.5793 0002221  56.5322   7.0114  1.00269313 26460
AEHF-2 (USA 235)        
1 38254U 12019A   19185.80952859 -.00000280  00000-0  00000+0 0  9995
2 38254   1.6030  30.2653 0005511  69.4003  46.7022  1.00275256 26217
JCSAT-13                
1 38331U 12023A   19186.07896472 -.00000362  00000-0  00000+0 0  9995
2 38331   0.0239  96.4860 0002330  16.9406 321.7804  1.00272385 26114
VINASAT-2               
1 38332U 12023B   19185.84922094 -.00000334  00000-0  00000-0 0  9990
2 38332   0.0202 322.0471 0001893 149.0792 248.9883  1.00269815 21194
NIMIQ 6                 
1 38342U 12026A   19186.12640256 -.00000180  00000-0  00000+0 0  9991
2 38342   0.0108  46.4746 0002366  50.5418 140.2156  1.00271516 26136
